OBJECT_NAME,OBJECT_ID,EPOCH,MEAN_MOTION,ECCENTRICITY,INCLINATION,RA_OF_ASC_NODE,ARG_OF_PERICENTER,MEAN_ANOMALY,EPHEMERIS_TYPE,CLASSIFICATION_TYPE,NORAD_CAT_ID,ELEMENT_SET_NO,REV_AT_EPOCH,BSTAR,MEAN_MOTION_DOT,MEAN_MOTION_DDOT
GALAXY 16 (G-16),2006-023A,2026-06-04T21:38:49.757856,1.00273797,.00031534,0.0147,274.0856,170.0966,34.8782,0,U,29236,999,7285,0,-.115E-5,0
EUTELSAT 33F,2006-032A,2026-06-04T22:16:30.642816,1.00273449,.00036321,1.6295,82.3799,347.0006,191.2089,0,U,29270,999,4718,0,.168E-5,0
JCSAT-3A,2006-033A,2026-06-04T21:00:53.396064,1.00272632,.00022481,0.0205,297.3580,141.5471,257.6342,0,U,29272,999,4761,0,-.332E-5,0
KOREASAT 5 (MUGUNGWHA 5),2006-034A,2026-06-04T20:09:38.599776,1.00277765,.00015767,1.7530,83.1368,19.7555,205.8499,0,U,29349,999,4119,0,-.346E-5,0
DIRECTV 9S,2006-043A,2026-06-04T21:38:12.318144,1.00271980,.00051833,2.3887,81.0490,3.6774,31.9817,0,U,29494,999,5126,0,-.102E-5,0
OPTUS D1,2006-043B,2026-06-04T21:07:45.238080,1.00272628,.0003831,3.0028,79.8068,350.0279,292.4231,0,U,29495,999,7199,0,-.171E-5,0
BADR-4,2006-051A,2026-06-04T17:50:03.090912,1.00450212,.00078927,1.9707,81.2738,161.5231,306.4291,0,U,29526,999,5114,0,.167E-5,0
WILDBLUE-1,2006-054A,2026-06-04T14:44:06.739296,1.00271660,.00017859,2.7704,80.6387,5.0378,277.2023,0,U,29643,999,5366,0,-.38E-6,0
SKYNET 5A,2007-007B,2026-06-04T19:47:21.729120,1.00268930,.00040661,5.2704,73.8881,8.2032,203.2087,0,U,30794,999,7057,0,-.26E-5,0
ANIK F3,2007-009A,2026-06-04T21:33:12.796128,1.00270920,.00028352,1.1652,83.9942,349.2942,24.6300,0,U,31102,999,4644,0,.11E-6,0
ASTRA 1L,2007-016A,2026-06-04T19:21:18.309888,1.00271341,.00054632,1.2895,81.6800,1.9243,75.4830,0,U,31306,999,4486,0,-.172E-5,0
GALAXY 17 (G-17),2007-016B,2026-06-04T21:42:49.375296,1.00273968,.00049211,2.9408,80.0567,12.2949,41.7037,0,U,31307,999,6968,0,-.195E-5,0
INTELSAT 11 (IS-11),2007-044B,2026-06-04T15:03:45.055584,0.99053533,.00016504,3.5325,78.8209,74.4904,146.6760,0,U,32253,999,6832,0,-.139E-5,0
WGS F1 (USA 195),2007-046A,2026-06-04T11:38:59.552736,1.00272078,.00005704,0.0505,94.0918,318.3690,332.7373,0,U,32258,999,5220,0,-.255E-5,0
SKYNET 5B,2007-056B,2026-06-04T22:14:08.369664,1.00274138,.00037628,5.2226,73.6472,356.5082,181.8387,0,U,32294,999,6807,0,.151E-5,0
ASTRA 4A,2007-057A,2026-06-04T22:08:23.921376,1.00273623,.00026068,0.0160,319.9507,119.4375,150.8832,0,U,32299,999,5152,0,.45E-6,0
HORIZONS-2,2007-063B,2026-06-04T21:46:04.063872,1.00273609,.00041915,2.5701,80.7756,352.1049,73.2045,0,U,32388,999,6769,0,-.242E-5,0
THURAYA-3,2008-001A,2026-06-04T19:01:22.869120,1.00010103,.00009227,5.9683,35.7801,146.5177,84.0517,0,U,32404,999,6736,0,-.149E-5,0
THOR 5,2008-006A,2026-06-04T22:06:46.576224,1.00270010,.00027656,0.0105,336.7608,109.7025,137.8353,0,U,32487,999,6719,0,0,0
AMC-14,2008-011A,2026-05-27T17:37:22.569600,1.00350219,.00499765,23.9628,20.7255,92.2727,95.7206,0,U,32708,999,6796,0,-.2E-7,0
DIRECTV 11,2008-013A,2026-06-04T21:38:42.269568,1.00270355,.00005747,0.0153,150.9196,236.0221,91.8989,0,U,32729,999,4547,0,-.113E-5,0
ICO G1,2008-016A,2026-06-04T14:49:54.672960,1.00271760,.00023036,5.5295,36.1728,22.5270,323.9697,0,U,32763,999,6641,0,-.162E-5,0
VINASAT-1,2008-018A,2026-06-04T14:11:21.992064,1.00268461,.00014439,0.0162,309.3801,139.3983,149.0364,0,U,32767,999,6646,0,-.316E-5,0
STAR ONE C2,2008-018B,2026-06-04T21:48:33.823584,1.00269910,.00029458,1.2094,82.5762,358.3831,74.5334,0,U,32768,999,6653,0,-.265E-5,0
AMOS-3,2008-022A,2026-06-04T19:57:39.025152,1.00470236,.00018593,0.4230,86.4339,56.9545,79.2346,0,U,32794,999,8221,0,.168E-5,0
GALAXY 18 (G-18),2008-024A,2026-06-04T21:31:50.428416,1.00271734,.00032988,0.0121,37.3016,46.3730,9.6152,0,U,32951,999,4573,0,.37E-6,0
ZHONGXING-9,2008-028A,2026-06-04T22:33:20.937024,1.00269972,.00048871,0.7377,85.5137,329.3739,269.2042,0,U,33051,999,6591,0,-.236E-5,0
SKYNET 5C,2008-030A,2026-06-04T22:02:02.030784,1.00271205,.00042607,3.7572,77.1849,6.0430,122.8645,0,U,33055,999,6583,0,-.128E-5,0
TURKSAT 3A,2008-030B,2026-06-04T18:04:43.721184,1.00271564,.00054436,0.0672,83.4815,341.4753,141.4013,0,U,33056,999,5223,0,.158E-5,0
INTELSAT 25 (IS-25),2008-034A,2026-06-04T19:32:13.121664,0.99015302,.00017551,2.6764,80.4561,12.6038,270.1716,0,U,33153,999,6556,0,-.167E-5,0
ECHOSTAR 11,2008-035A,2026-06-04T21:35:20.092704,1.00271913,.00026427,0.9729,84.3196,334.9690,48.0898,0,U,33207,999,5109,0,-.46E-6,0
SUPERBIRD-C2,2008-038A,2026-06-04T14:12:29.384064,1.00270064,.00061622,2.3282,81.4170,21.2504,139.4756,0,U,33274,999,10560,0,-.295E-5,0
