GALAXY 16 (G-16)        
1 29236U 06023A   26155.90196479 -.00000115  00000+0  00000+0 0  9993
2 29236   0.0147 274.0856 0003153 170.0966  34.8782  1.00273797 72859
EUTELSAT 33F            
1 29270U 06032A   26155.92813244  .00000168  00000+0  00000+0 0  9996
2 29270   1.6295  82.3799 0003632 347.0006 191.2089  1.00273449 47187
JCSAT-3A                
1 29272U 06033A   26155.87561801 -.00000332  00000+0  00000+0 0  9996
2 29272   0.0205 297.3580 0002248 141.5471 257.6342  1.00272632 47614
KOREASAT 5 (MUGUNGWHA 5)
1 29349U 06034A   26155.84003009 -.00000346  00000+0  00000+0 0  9995
2 29349   1.7530  83.1368 0001576  19.7555 205.8499  1.00277765 41192
DIRECTV 9S              
1 29494U 06043A   26155.90153146 -.00000102  00000+0  00000+0 0  9991
2 29494   2.3887  81.0490 0005183   3.6774  31.9817  1.00271980 51265
OPTUS D1                
1 29495U 06043B   26155.88038470 -.00000171  00000+0  00000+0 0  9997
2 29495   3.0028  79.8068 0003831 350.0279 292.4231  1.00272628 71990
BADR-4                  
1 29526U 06051A   26155.74309133  .00000167  00000+0  00000+0 0  9997
2 29526   1.9707  81.2738 0007892 161.5231 306.4291  1.00450212 51145
WILDBLUE-1              
1 29643U 06054A   26155.61396689 -.00000038  00000+0  00000+0 0  9996
2 29643   2.7704  80.6387 0001785   5.0378 277.2023  1.00271660 53668
SKYNET 5A               
1 30794U 07007B   26155.82455705 -.00000260  00000+0  00000+0 0  9999
2 30794   5.2704  73.8881 0004066   8.2032 203.2087  1.00268930 70579
ANIK F3                 
1 31102U 07009A   26155.89806477  .00000011  00000+0  00000+0 0  9991
2 31102   1.1652  83.9942 0002835 349.2942  24.6300  1.00270920 46444
ASTRA 1L                
1 31306U 07016A   26155.80646192 -.00000172  00000+0  00000+0 0  9991
2 31306   1.2895  81.6800 0005463   1.9243  75.4830  1.00271341 44868
GALAXY 17 (G-17)        
1 31307U 07016B   26155.90473814 -.00000195  00000+0  00000+0 0  9997
2 31307   2.9408  80.0567 0004921  12.2949  41.7037  1.00273968 69685
INTELSAT 11 (IS-11)     
1 32253U 07044B   26155.62760481 -.00000139  00000+0  00000+0 0  9995
2 32253   3.5325  78.8209 0001650  74.4904 146.6760  0.99053533 68325
WGS F1 (USA 195)        
1 32258U 07046A   26155.48541149 -.00000255  00000+0  00000+0 0  9993
2 32258   0.0505  94.0918 0000570 318.3690 332.7373  1.00272078 52209
SKYNET 5B               
1 32294U 07056B   26155.92648576  .00000151  00000+0  00000+0 0  9999
2 32294   5.2226  73.6472 0003762 356.5082 181.8387  1.00274138 68078
ASTRA 4A                
1 32299U 07057A   26155.92249909  .00000045  00000+0  00000+0 0  9994
2 32299   0.0160 319.9507 0002606 119.4375 150.8832  1.00273623 51526
HORIZONS-2              
1 32388U 07063B   26155.90699148 -.00000242  00000+0  00000+0 0  9992
2 32388   2.5701  80.7756 0004191 352.1049  73.2045  1.00273609 67690
THURAYA-3               
1 32404U 08001A   26155.79262580 -.00000149  00000+0  00000+0 0  9993
2 32404   5.9683  35.7801 0000922 146.5177  84.0517  1.00010103 67367
THOR 5                  
1 32487U 08006A   26155.92137241  .00000000  00000+0  00000+0 0  9994
2 32487   0.0105 336.7608 0002765 109.7025 137.8353  1.00270010 67193
AMC-14                  
1 32708U 08011A   26147.73428900 -.00000002  00000+0  00000+0 0  9994
2 32708  23.9628  20.7255 0049976  92.2727  95.7206  1.00350219 67965
DIRECTV 11              
1 32729U 08013A   26155.90187812 -.00000113  00000+0  00000+0 0  9994
2 32729   0.0153 150.9196 0000574 236.0221  91.8989  1.00270355 45474
ICO G1                  
1 32763U 08016A   26155.61799390 -.00000162  00000+0  00000+0 0  9997
2 32763   5.5295  36.1728 0002303  22.5270 323.9697  1.00271760 66412
VINASAT-1               
1 32767U 08018A   26155.59122676 -.00000316  00000+0  00000+0 0  9998
2 32767   0.0162 309.3801 0001443 139.3983 149.0364  1.00268461 66465
STAR ONE C2             
1 32768U 08018B   26155.90872481 -.00000265  00000+0  00000+0 0  9993
2 32768   1.2094  82.5762 0002945 358.3831  74.5334  1.00269910 66539
AMOS-3                  
1 32794U 08022A   26155.83170168  .00000168  00000+0  00000+0 0  9993
2 32794   0.4230  86.4339 0001859  56.9545  79.2346  1.00470236 82213
GALAXY 18 (G-18)        
1 32951U 08024A   26155.89711144  .00000037  00000+0  00000+0 0  9996
2 32951   0.0121  37.3016 0003298  46.3730   9.6152  1.00271734 45738
ZHONGXING-9             
1 33051U 08028A   26155.93982566 -.00000236  00000+0  00000+0 0  9997
2 33051   0.7377  85.5137 0004887 329.3739 269.2042  1.00269972 65912
SKYNET 5C               
1 33055U 08030A   26155.91807906 -.00000128  00000+0  00000+0 0  9996
2 33055   3.7572  77.1849 0004260   6.0430 122.8645  1.00271205 65831
TURKSAT 3A              
1 33056U 08030B   26155.75328381  .00000158  00000+0  00000+0 0  9996
2 33056   0.0672  83.4815 0005443 341.4753 141.4013  1.00271564 52238
INTELSAT 25 (IS-25)     
1 33153U 08034A   26155.81404076 -.00000167  00000+0  00000+0 0  9992
2 33153   2.6764  80.4561 0001755  12.6038 270.1716  0.99015302 65569
ECHOSTAR 11             
1 33207U 08035A   26155.89953811 -.00000046  00000+0  00000+0 0  9993
2 33207   0.9729  84.3196 0002642 334.9690  48.0898  1.00271913 51099
SUPERBIRD-C2            
1 33274U 08038A   26155.59200676 -.00000295  00000+0  00000+0 0  9997
2 33274   2.3282  81.4170 0006162  21.2504 139.4756  1.00270064105605
